{
  "type": "FeatureCollection",
  "features": [
    {
      "type": "Feature",
      "properties": {
        "norad_id": 66913,
        "name": "2025-284A",
        "group": "last-30-days",
        "lat": 73.63191539686528,
        "lon": -103.84310397869501,
        "alt_km": 539.6305022648949,
        "timestamp": "2025-12-27T10:28:57.516357+00:00",
        "meta_object_name": "2025-284A",
        "meta_object_id": "2025-284A",
        "meta_epoch": "2025-12-23T02:34:46.438752",
        "meta_mean_motion": 15.08893564,
        "meta_eccentricity": 0.0013475,
        "meta_inclination": 80.4035,
        "meta_ra_of_asc_node": 116.7336,
        "meta_arg_of_pericenter": 259.6514,
        "meta_mean_anomaly": 100.3189,
        "meta_ephemeris_type": 0,
        "meta_classification_type": "U",
        "meta_norad_cat_id": 66913,
        "meta_element_set_no": 999,
        "meta_rev_at_epoch": 269,
        "meta_bstar": 0.00055263602,
        "meta_mean_motion_dot": 8.748e-05,
        "meta_mean_motion_ddot": 0,
        "tle_line1": "1 66913U 25284A   25357.10748193  .00008748  00000+0  55264-3 0  9992",
        "tle_line2": "2 66913  80.4035 116.7336 0013475 259.6514 100.3189 15.08893564  2694"
      },
      "geometry": {
        "type": "Point",
        "coordinates": [
          -103.84310397869501,
          73.63191539686528
        ]
      }
    },
    {
      "type": "Feature",
      "properties": {
        "norad_id": 66914,
        "name": "2025-284B",
        "group": "last-30-days",
        "lat": 71.54115473098581,
        "lon": -99.31710265777214,
        "alt_km": 501.6727242349525,
        "timestamp": "2025-12-27T10:28:57.516367+00:00",
        "meta_object_name": "2025-284B",
        "meta_object_id": "2025-284B",
        "meta_epoch": "2025-12-16T06:51:11.417184",
        "meta_mean_motion": 15.18985981,
        "meta_eccentricity": 0.00081793,
        "meta_inclination": 80.4045,
        "meta_ra_of_asc_node": 125.2713,
        "meta_arg_of_pericenter": 234.9626,
        "meta_mean_anomaly": 125.0834,
        "meta_ephemeris_type": 0,
        "meta_classification_type": "U",
        "meta_norad_cat_id": 66914,
        "meta_element_set_no": 999,
        "meta_rev_at_epoch": 166,
        "meta_bstar": 0.00038444995,
        "meta_mean_motion_dot": 8.068e-05,
        "meta_mean_motion_ddot": 0,
        "tle_line1": "1 66914U 25284B   25350.28554881  .00008068  00000+0  38445-3 0  9991",
        "tle_line2": "2 66914  80.4045 125.2713 0008179 234.9626 125.0834 15.18985981  1668"
      },
      "geometry": {
        "type": "Point",
        "coordinates": [
          -99.31710265777214,
          71.54115473098581
        ]
      }
    },
    {
      "type": "Feature",
      "properties": {
        "norad_id": 66915,
        "name": "HULIANWANG DIGUI-105",
        "group": "last-30-days",
        "lat": -14.7467474242658,
        "lon": 44.67362551498132,
        "alt_km": 884.3051710399304,
        "timestamp": "2025-12-27T10:28:57.516378+00:00",
        "meta_object_name": "HULIANWANG DIGUI-105",
        "meta_object_id": "2025-285A",
        "meta_epoch": "2025-12-27T05:26:33.726336",
        "meta_mean_motion": 14.02007322,
        "meta_eccentricity": 0.0006613,
        "meta_inclination": 50.0052,
        "meta_ra_of_asc_node": 58.2922,
        "meta_arg_of_pericenter": 334.1406,
        "meta_mean_anomaly": 25.9167,
        "meta_ephemeris_type": 0,
        "meta_classification_type": "U",
        "meta_norad_cat_id": 66915,
        "meta_element_set_no": 999,
        "meta_rev_at_epoch": 294,
        "meta_bstar": 0.00013598,
        "meta_mean_motion_dot": 5.8e-07,
        "meta_mean_motion_ddot": 0,
        "tle_line1": "1 66915U 25285A   25361.22677924  .00000058  00000+0  13598-3 0  9996",
        "tle_line2": "2 66915  50.0052  58.2922 0006613 334.1406  25.9167 14.02007322  2942"
      },
      "geometry": {
        "type": "Point",
        "coordinates": [
          44.67362551498132,
          -14.7467474242658
        ]
      }
    },
    {
      "type": "Feature",
      "properties": {
        "norad_id": 66916,
        "name": "HULIANWANG DIGUI-106",
        "group": "last-30-days",
        "lat": -3.490656577587349,
        "lon": 54.50558697474289,
        "alt_km": 880.2835155109706,
        "timestamp": "2025-12-27T10:28:57.516388+00:00",
        "meta_object_name": "HULIANWANG DIGUI-106",
        "meta_object_id": "2025-285B",
        "meta_epoch": "2025-12-27T03:39:47.277792",
        "meta_mean_motion": 14.02345199,
        "meta_eccentricity": 0.0009607,
        "meta_inclination": 50.0169,
        "meta_ra_of_asc_node": 58.5941,
        "meta_arg_of_pericenter": 330.4912,
        "meta_mean_anomaly": 29.5449,
        "meta_ephemeris_type": 0,
        "meta_classification_type": "U",
        "meta_norad_cat_id": 66916,
        "meta_element_set_no": 999,
        "meta_rev_at_epoch": 293,
        "meta_bstar": 0.00013579,
        "meta_mean_motion_dot": 5.9e-07,
        "meta_mean_motion_ddot": 0,
        "tle_line1": "1 66916U 25285B   25361.15263053  .00000059  00000+0  13579-3 0  9993",
        "tle_line2": "2 66916  50.0169  58.5941 0009607 330.4912  29.5449 14.02345199  2932"
      },
      "geometry": {
        "type": "Point",
        "coordinates": [
          54.50558697474289,
          -3.490656577587349
        ]
      }
    },
    {
      "type": "Feature",
      "properties": {
        "norad_id": 66917,
        "name": "HULIANWANG DIGUI-107",
        "group": "last-30-days",
        "lat": 3.599312733391258,
        "lon": 60.410819592719996,
        "alt_km": 881.9350685555492,
        "timestamp": "2025-12-27T10:28:57.516400+00:00",
        "meta_object_name": "HULIANWANG DIGUI-107",
        "meta_object_id": "2025-285C",
        "meta_epoch": "2025-12-27T05:19:45.901056",
        "meta_mean_motion": 14.02324482,
        "meta_eccentricity": 0.0006143,
        "meta_inclination": 50.0039,
        "meta_ra_of_asc_node": 58.2564,
        "meta_arg_of_pericenter": 334.0629,
        "meta_mean_anomaly": 25.9966,
        "meta_ephemeris_type": 0,
        "meta_classification_type": "U",
        "meta_norad_cat_id": 66917,
        "meta_element_set_no": 999,
        "meta_rev_at_epoch": 294,
        "meta_bstar": 0.00019339,
        "meta_mean_motion_dot": 1.47e-06,
        "meta_mean_motion_ddot": 0,
        "tle_line1": "1 66917U 25285C   25361.22205904  .00000147  00000+0  19339-3 0  9991",
        "tle_line2": "2 66917  50.0039  58.2564 0006143 334.0629  25.9966 14.02324482  2941"
      },
      "geometry": {
        "type": "Point",
        "coordinates": [
          60.410819592719996,
          3.599312733391258
        ]
      }
    },
    {
      "type": "Feature",
      "properties": {
        "norad_id": 66918,
        "name": "HULIANWANG DIGUI-108",
        "group": "last-30-days",
        "lat": 6.069939404179436,
        "lon": 62.507280194483194,
        "alt_km": 881.8984452397617,
        "timestamp": "2025-12-27T10:28:57.516410+00:00",
        "meta_object_name": "HULIANWANG DIGUI-108",
        "meta_object_id": "2025-285D",
        "meta_epoch": "2025-12-27T05:18:52.389216",
        "meta_mean_motion": 14.02455975,
        "meta_eccentricity": 0.0005393,
        "meta_inclination": 50.0071,
        "meta_ra_of_asc_node": 58.2614,
        "meta_arg_of_pericenter": 329.7125,
        "meta_mean_anomaly": 30.3467,
        "meta_ephemeris_type": 0,
        "meta_classification_type": "U",
        "meta_norad_cat_id": 66918,
        "meta_element_set_no": 999,
        "meta_rev_at_epoch": 294,
        "meta_bstar": 5.2834e-05,
        "meta_mean_motion_dot": -6.9e-07,
        "meta_mean_motion_ddot": 0,
        "tle_line1": "1 66918U 25285D   25361.22143969 -.00000069  00000+0  52834-4 0  9996",
        "tle_line2": "2 66918  50.0071  58.2614 0005393 329.7125  30.3467 14.02455975  2940"
      },
      "geometry": {
        "type": "Point",
        "coordinates": [
          62.507280194483194,
          6.069939404179436
        ]
      }
    },
    {
      "type": "Feature",
      "properties": {
        "norad_id": 66919,
        "name": "HULIANWANG DIGUI-109",
        "group": "last-30-days",
        "lat": 13.86666844339414,
        "lon": 69.33041808912132,
        "alt_km": 879.2828292740151,
        "timestamp": "2025-12-27T10:28:57.516420+00:00",
        "meta_object_name": "HULIANWANG DIGUI-109",
        "meta_object_id": "2025-285E",
        "meta_epoch": "2025-12-27T05:15:58.491072",
        "meta_mean_motion": 14.02596481,
        "meta_eccentricity": 0.0006895,
        "meta_inclination": 50.0087,
        "meta_ra_of_asc_node": 58.2555,
        "meta_arg_of_pericenter": 342.3929,
        "meta_mean_anomaly": 17.6735,
        "meta_ephemeris_type": 0,
        "meta_classification_type": "U",
        "meta_norad_cat_id": 66919,
        "meta_element_set_no": 999,
        "meta_rev_at_epoch": 294,
        "meta_bstar": 0.00032054,
        "meta_mean_motion_dot": 3.46e-06,
        "meta_mean_motion_ddot": 0,
        "tle_line1": "1 66919U 25285E   25361.21942698  .00000346  00000+0  32054-3 0  9990",
        "tle_line2": "2 66919  50.0087  58.2555 0006895 342.3929  17.6735 14.02596481  2947"
      },
      "geometry": {
        "type": "Point",
        "coordinates": [
          69.33041808912132,
          13.86666844339414
        ]
      }
    }
  ]
}